NORAD_CAT_ID,OBJECT_NAME,OBJECT_TYPE,EPOCH,MEAN_MOTION,ECCENTRICITY,INCLINATION,RA_OF_ASC_NODE,ARG_OF_PERICENTER,MEAN_ANOMALY,BSTAR,MEAN_MOTION_DOT,MEAN_MOTION_DDOT,TLE_LINE0,TLE_LINE1,TLE_LINE2,SEMIMAJOR_AXIS,PERIOD,APOGEE,PERIGEE,DECAYED
55781.0,STARLINK-5820,PAYLOAD,2023-05-27 14:00:01,15.67107527,0.0003668,70.0011,276.714,270.9935,221.1267,-0.0062307,-0.00620469,0.0,0 STARLINK-5820,1 55781U 23028AS  23147.58334491 -.00620469  00000-0 -62307-2 0  9994,2 55781  70.0011 276.7140 0003668 270.9935 221.1267 15.67107527 13985,6745.321,91.889,369.661,364.712,0.0
55781.0,STARLINK-5820,PAYLOAD,2023-05-27 22:00:00,15.66708901,0.0003648,70.0006,275.7809,272.3247,299.4803,-0.0068423,-0.00666729,0.0,0 STARLINK-5820,1 55781U 23028AS  23147.91667824 -.00666729  00000-0 -68423-2 0  9994,2 55781  70.0006 275.7809 0003648 272.3247 299.4803 15.66708901  1309,6746.465,91.912,370.792,365.869,0.0
55781.0,STARLINK-5820,PAYLOAD,2023-05-28 06:00:00,15.66229591,0.0003764,70.0006,274.8487,266.2313,24.7674,-0.0059985,-0.00579366,0.0,0 STARLINK-5820,1 55781U 23028AS  23148.25001157 -.00579366  00000-0 -59985-2 0  9996,2 55781  70.0006 274.8487 0003764 266.2313  24.7674 15.66229591  1304,6747.842,91.941,372.247,367.167,0.0
55781.0,STARLINK-5820,PAYLOAD,2023-05-28 22:00:00,15.65411718,0.000359,70.0002,272.9856,275.9441,171.8428,-0.0073552,-0.00679181,0.0,0 STARLINK-5820,1 55781U 23028AS  23148.91667824 -.00679181  00000-0 -73552-2 0  9990,2 55781  70.0002 272.9856 0003590 275.9441 171.8428 15.65411718 14190,6750.192,91.989,374.48,369.634,0.0
55781.0,STARLINK-5820,PAYLOAD,2023-05-29 06:00:00,15.64932926,0.000342,70.0005,272.0551,268.6226,256.7926,-0.0064645,-0.0059179,0.0,0 STARLINK-5820,1 55781U 23028AS  23149.25001157 -.00591790  00000-0 -64645-2 0  9991,2 55781  70.0005 272.0551 0003420 268.6226 256.7926 15.64932926 14248,6751.569,92.017,375.743,371.125,0.0
55781.0,STARLINK-5820,PAYLOAD,2023-05-29 11:26:03,15.65471165,0.0002721,70.0013,271.4249,242.839,117.2526,-0.0024417,-0.00238302,0.0,0 STARLINK-5820,1 55781U 23028AS  23149.47642804 -.00238302  00000-0 -24417-2 0  9995,2 55781  70.0013 271.4249 0002721 242.8390 117.2526 15.65471165 14288,6750.021,91.985,373.723,370.049,0.0
55781.0,STARLINK-5820,PAYLOAD,2023-05-29 22:00:00,15.64100767,0.0003335,70.0004,270.1956,274.6353,44.4445,-0.0076651,-0.00672273,0.0,0 STARLINK-5820,1 55781U 23028AS  23149.91667824 -.00672273  00000-0 -76651-2 0  9999,2 55781  70.0004 270.1956 0003335 274.6353  44.4445 15.64100767 14347,6753.963,92.066,378.081,373.576,0.0
55781.0,STARLINK-5820,PAYLOAD,2023-05-30 10:27:29,15.64284906,0.000649,69.9997,268.7499,304.2496,55.8081,-0.0029376,-0.00272693,0.0,0 STARLINK-5820,1 55781U 23028AS  23150.43575868 -.00272693  00000-0 -29376-2 0  9998,2 55781  69.9997 268.7499 0006490 304.2496  55.8081 15.64284906 14433,6753.433,92.055,379.681,370.915,0.0
55781.0,STARLINK-5820,PAYLOAD,2023-05-30 14:00:01,15.6317217,0.0003299,70.0005,268.3389,275.237,195.4505,-0.0067564,-0.00577834,0.0,0 STARLINK-5820,1 55781U 23028AS  23150.58334491 -.00577834  00000-0 -67564-2 0  9995,2 55781  70.0005 268.3389 0003299 275.2370 195.4505 15.63172170 14454,6756.638,92.12,380.732,376.274,0.0
55781.0,STARLINK-5820,PAYLOAD,2023-05-31 00:00:02,15.62653622,0.0003198,70.0005,267.1792,271.5998,22.8256,-0.0074694,-0.00622547,0.0,0 STARLINK-5820,1 55781U 23028AS  23151.00002315 -.00622547  00000-0 -74694-2 0  9994,2 55781  70.0005 267.1792 0003198 271.5998  22.8256 15.62653622  1303,6758.132,92.151,382.159,377.836,0.0
55781.0,STARLINK-5820,PAYLOAD,2023-05-31 06:00:02,15.62337185,0.0003287,70.0008,266.4842,266.2224,354.0105,-0.007441,-0.0061327,0.0,0 STARLINK-5820,1 55781U 23028AS  23151.25002315 -.00613270  00000-0 -74410-2 0  9990,2 55781  70.0008 266.4842 0003287 266.2224 354.0105 15.62337185 14553,6759.045,92.17,383.132,378.688,0.0
55781.0,STARLINK-5820,PAYLOAD,2023-05-31 14:00:01,15.6187203,0.0003362,70.0011,265.5579,272.7438,61.4091,-0.0071816,-0.00583399,0.0,0 STARLINK-5820,1 55781U 23028AS  23151.58334491 -.00583399  00000-0 -71816-2 0  9994,2 55781  70.0011 265.5579 0003362 272.7438  61.4091 15.61872030  1301,6760.387,92.197,384.525,379.979,0.0
55781.0,STARLINK-5820,PAYLOAD,2023-05-31 22:00:00,15.61483928,0.0003373,70.0007,264.6321,274.7934,132.7886,-0.0083438,-0.00661357,0.0,0 STARLINK-5820,1 55781U 23028AS  23151.91667824 -.00661357  00000-0 -83438-2 0  9994,2 55781  70.0007 264.6321 0003373 274.7934 132.7886 15.61483928  1304,6761.507,92.22,385.653,381.091,0.0
55781.0,STARLINK-5820,PAYLOAD,2023-06-01 06:00:00,15.6103263,0.000326,70.001,263.707,268.9485,211.5566,-0.0078223,-0.00612888,0.0,0 STARLINK-5820,1 55781U 23028AS  23152.25001157 -.00612888  00000-0 -78223-2 0  9994,2 55781  70.0010 263.7070 0003260 268.9485 211.5566 15.61032630 14710,6762.81,92.247,386.88,382.47,0.0
55781.0,STARLINK-5820,PAYLOAD,2023-06-01 12:00:02,15.60700351,0.0003372,70.0011,263.0134,272.8521,172.0821,-0.008152,-0.00629346,0.0,0 STARLINK-5820,1 55781U 23028AS  23152.50002315 -.00629346  00000-0 -81520-2 0  9990,2 55781  70.0011 263.0134 0003372 272.8521 172.0821 15.60700351  1301,6763.77,92.266,387.916,383.354,0.0
55781.0,STARLINK-5820,PAYLOAD,2023-06-01 22:00:00,15.60183258,0.0003291,70.0009,261.8585,272.9578,351.8326,-0.0089138,-0.00671143,0.0,0 STARLINK-5820,1 55781U 23028AS  23152.91667824 -.00671143  00000-0 -89138-2 0  9992,2 55781  70.0009 261.8585 0003291 272.9578 351.8326 15.60183258 14815,6765.264,92.297,389.356,384.903,0.0
55781.0,STARLINK-5820,PAYLOAD,2023-06-02 06:00:00,15.59733733,0.0003578,70.0014,260.9355,267.0193,69.1285,-0.0083534,-0.00622024,0.0,0 STARLINK-5820,1 55781U 23028AS  23153.25001157 -.00622024  00000-0 -83534-2 0  9999,2 55781  70.0014 260.9355 0003578 267.0193  69.1285 15.59733733 14867,6766.564,92.323,390.85,386.008,0.0
55781.0,STARLINK-5820,PAYLOAD,2023-06-02 14:00:01,15.5927108,0.0003658,70.0015,260.0129,272.8609,134.1423,-0.0081437,-0.00597608,0.0,0 STARLINK-5820,1 55781U 23028AS  23153.58334491 -.00597608  00000-0 -81437-2 0  9994,2 55781  70.0015 260.0129 0003658 272.8609 134.1423 15.59271080  1307,6767.902,92.351,392.243,387.292,0.0
55781.0,STARLINK-5820,PAYLOAD,2023-06-02 22:00:00,15.58873362,0.0003622,70.001,259.0906,273.4964,203.8092,-0.0091766,-0.00658356,0.0,0 STARLINK-5820,1 55781U 23028AS  23153.91667824 -.00658356  00000-0 -91766-2 0  9994,2 55781  70.0010 259.0906 0003622 273.4964 203.8092 15.58873362  1301,6769.054,92.374,393.37,388.467,0.0
55781.0,STARLINK-5820,PAYLOAD,2023-06-03 14:00:01,15.57954747,0.0003687,70.0015,257.2481,272.6025,343.789,-0.0082178,-0.0057531,0.0,0 STARLINK-5820,1 55781U 23028AS  23154.58334491 -.00575310  00000-0 -82178-2 0  9994,2 55781  70.0015 257.2481 0003687 272.6025 343.7890 15.57954747 15079,6771.714,92.429,396.076,391.082,0.0
55781.0,STARLINK-5820,PAYLOAD,2023-06-03 22:00:00,15.57570685,0.0003638,70.0012,256.3278,272.7638,52.3637,-0.0097295,-0.00664046,0.0,0 STARLINK-5820,1 55781U 23028AS  23154.91667824 -.00664046  00000-0 -97295-2 0  9991,2 55781  70.0012 256.3278 0003638 272.7638  52.3637 15.57570685  1305,6772.827,92.452,397.156,392.228,0.0
55781.0,STARLINK-5820,PAYLOAD,2023-06-04 06:00:00,15.57129909,0.0003617,70.0014,255.4085,269.779,123.5747,-0.0094079,-0.00633924,0.0,0 STARLINK-5820,1 55781U 23028AS  23155.25001157 -.00633924  00000-0 -94079-2 0  9998,2 55781  70.0014 255.4085 0003617 269.7790 123.5747 15.57129909 15188,6774.105,92.478,398.42,393.52,0.0
55781.0,STARLINK-5820,PAYLOAD,2023-06-04 16:00:00,15.56546498,0.0003486,70.0012,254.2598,276.1575,291.7654,-0.0085671,-0.00569334,0.0,0 STARLINK-5820,1 55781U 23028AS  23155.66667824 -.00569334  00000-0 -85671-2 0  9993,2 55781  70.0012 254.2598 0003486 276.1575 291.7654 15.56546498  1308,6775.798,92.512,400.025,395.301,0.0
55781.0,STARLINK-5820,PAYLOAD,2023-06-04 22:00:00,15.5626578,0.0003454,70.0008,253.571,275.6945,252.5613,-0.010223,-0.0066443,0.0,0 STARLINK-5820,1 55781U 23028AS  23155.91667824 -.00664430  00000-0 -10223-1 0  9994,2 55781  70.0008 253.5710 0003454 275.6945 252.5613 15.56265780  1303,6776.613,92.529,400.818,396.137,0.0
55781.0,STARLINK-5820,PAYLOAD,2023-06-05 14:00:01,15.55344355,0.0003386,70.0011,251.736,275.3963,25.75,-0.0089515,-0.00568961,0.0,0 STARLINK-5820,1 55781U 23028AS  23156.58335648 -.00568961  00000-0 -89515-2 0  9997,2 55781  70.0011 251.7360 0003386 275.3963  25.7500 15.55344355 15382,6779.289,92.584,403.449,398.858,0.0
55781.0,STARLINK-5820,PAYLOAD,2023-06-06 00:00:00,15.54798268,0.0003207,70.0007,250.5902,271.0692,201.961,-0.0091465,-0.00569698,0.0,0 STARLINK-5820,1 55781U 23028AS  23157.00001157 -.00569698  00000-0 -91465-2 0  9995,2 55781  70.0007 250.5902 0003207 271.0692 201.9610 15.54798268  1302,6780.876,92.617,404.916,400.566,0.0
55781.0,STARLINK-5820,PAYLOAD,2023-06-06 06:00:00,15.5453049,0.0003244,70.0007,249.9034,268.3431,163.4403,-0.010643,-0.00649901,0.0,0 STARLINK-5820,1 55781U 23028AS  23157.25001157 -.00649901  00000-0 -10643-1 0  9996,2 55781  70.0007 249.9034 0003244 268.3431 163.4403 15.54530490 15499,6781.655,92.632,405.72,401.32,0.0
55781.0,STARLINK-5820,PAYLOAD,2023-06-06 14:00:01,15.54041047,0.000313,70.0004,248.988,275.5808,220.8048,-0.0094031,-0.00569646,0.0,0 STARLINK-5820,1 55781U 23028AS  23157.58334491 -.00569646  00000-0 -94031-2 0  9993,2 55781  70.0004 248.9880 0003130 275.5808 220.8048 15.54041047  1309,6783.079,92.662,407.067,402.821,0.0
55781.0,STARLINK-5820,PAYLOAD,2023-06-06 20:00:01,15.53766124,0.0003147,70.0001,248.3018,276.3171,178.1448,-0.011137,-0.00660416,0.0,0 STARLINK-5820,1 55781U 23028AS  23157.83334491 -.00660416  00000-0 -11137-1 0  9993,2 55781  70.0001 248.3018 0003147 276.3171 178.1448 15.53766124  1301,6783.879,92.678,407.879,403.609,0.0
55781.0,STARLINK-5820,PAYLOAD,2023-06-07 06:00:00,15.53229063,0.0003208,70.0005,247.1591,267.8392,356.1192,-0.011243,-0.00654305,0.0,0 STARLINK-5820,1 55781U 23028AS  23158.25001157 -.00654305  00000-0 -11243-1 0  9998,2 55781  70.0005 247.1591 0003208 267.8392 356.1192 15.53229063 15648,6785.442,92.71,409.484,405.131,0.0
